COSMOS 2425 (716)       
1 29670U 06062A   21318.28715925 -.00000048  00000-0  00000-0 0  9995
2 29670  64.8079 250.3887 0024490 342.8344 282.7114  2.13114582115863
COSMOS 2433 (720)       
1 32275U 07052A   21319.13130770 -.00000077  00000-0  00000+0 0  9995
2 32275  66.0776  11.7849 0004579 232.5250 127.3681  2.13104211109392
COSMOS 2432 (719)       
1 32276U 07052B   21319.09022583 -.00000077  00000-0  00000+0 0  9993
2 32276  66.0899  11.8841 0009208 316.2281 321.0175  2.13103396109394
COSMOS 2434 (721)       
1 32393U 07065A   21319.15817845 -.00000048  00000-0  00000+0 0  9995
2 32393  64.4268 248.7486 0001373  73.8355 195.4911  2.13103074108107
COSMOS 2436 (723)       
1 32395U 07065C   21318.38871729 -.00000048  00000-0  00000-0 0  9993
2 32395  64.4359 248.8297 0015408 354.7463 180.2911  2.13102899108023
COSMOS 2456 (730)       
1 36111U 09070A   21319.52847728  .00000087  00000-0  00000+0 0  9991
2 36111  64.3032 128.3991 0001771 353.6417   8.3343  2.13099222 92787
COSMOS 2457 (733)       
1 36112U 09070B   21318.52389727  .00000093  00000-0  00000-0 0  9999
2 36112  64.2869 128.3150 0006794 147.6739 289.2174  2.13101483 92763
COSMOS 2459 (731)       
1 36400U 10007A   21319.22250825 -.00000076  00000-0  00000+0 0  9996
2 36400  65.9711  10.6859 0025363 346.1183 303.8318  2.13109946 91111
COSMOS 2461 (735)       
1 36401U 10007B   21319.41275734 -.00000075  00000-0  00000+0 0  9993
2 36401  65.9664  10.6438 0018042   3.4678  70.0162  2.13103583 91133
COSMOS 2460 (732)       
1 36402U 10007C   21319.28825990 -.00000075  00000-0  00000+0 0  9994
2 36402  65.9533  10.6028 0001981 213.5964  70.7258  2.13106437 91123
COSMOS 2464 (736)       
1 37139U 10041C   21319.22827113 -.00000047  00000-0  00000+0 0  9992
2 37139  64.0257 247.9275 0028347   7.3510 175.5567  2.13100802 87182
COSMOS 2471 (701K)      
1 37372U 11009A   21318.48611889 -.00000078  00000-0  00000+0 0  9998
2 37372  65.9469  10.5577 0017364 229.3021 284.7889  2.13062346 83383
COSMOS 2476 (744)       
1 37867U 11064A   21318.60770236  .00000095  00000-0  00000-0 0  9993
2 37867  64.5959 129.7030 0019547 230.4997  48.7152  2.13101879 78108
COSMOS 2477 (745)       
1 37868U 11064B   21318.71393291  .00000094  00000-0  00000-0 0  9997
2 37868  64.6045 129.7614 0016816 230.9935 307.9741  2.13101710 78060
COSMOS 2475 (743)       
1 37869U 11064C   21319.56661448  .00000089  00000-0  00000+0 0  9997
2 37869  64.6112 129.7394 0020226 252.9542 178.0155  2.13101946 78099
COSMOS 2485 (747)       
1 39155U 13019A   21319.32002248  .00000092  00000-0  00000+0 0  9994
2 39155  64.7603 130.0622 0020177 226.2548 283.8913  2.13101903 66591
COSMOS 2492 (754)       
1 39620U 14012A   21319.53321556 -.00000074  00000-0  00000+0 0  9995
2 39620  65.8413  10.3060 0012502 314.0622  34.2766  2.13103186 59543
COSMOS 2500 (755)       
1 40001U 14032A   21319.15848316 -.00000076  00000-0  00000+0 0  9990
2 40001  65.7814  10.1937 0008323 205.6822  74.4111  2.13102340 57758
COSMOS 2501 (702K)      
1 40315U 14075A   21319.36181331 -.00000047  00000-0  00000+0 0  9993
2 40315  63.7366 248.6737 0017804 212.2442  30.8380  2.13101278 54163
COSMOS 2514 (751)       
1 41330U 16008A   21318.71019410 -.00000077  00000-0  00000-0 0  9999
2 41330  65.5823   9.9551 0012072 213.4348 266.1748  2.13102784 44918
COSMOS 2516 (753)       
1 41554U 16032A   21319.37841655 -.00000047  00000-0  00000+0 0  9997
2 41554  63.9618 248.8886 0014204 221.6456 309.2002  2.13107024 42535
COSMOS 2522 (752)       
1 42939U 17055A   21319.51916927 -.00000047  00000-0  00000+0 0  9992
2 42939  64.1946 249.2157 0008711 250.5698 248.4201  2.13102058 32290
COSMOS 2527 (756)       
1 43508U 18053A   21318.37545551  .00000097  00000-0  00000+0 0  9992
2 43508  64.9246 130.0479 0006889 211.8024 161.8922  2.13102538 26569
COSMOS 2529 (757)       
1 43687U 18086A   21319.53517505 -.00000047  00000-0  00000+0 0  9999
2 43687  64.4100 249.4739 0011084 270.4399 196.3751  2.13102095 23607
COSMOS 2534 (758)       
1 44299U 19030A   21319.09617054 -.00000048  00000-0  00000+0 0  9991
2 44299  64.4809 249.3536 0013842 288.2732 336.4789  2.13101867 19237
COSMOS 2544 (759)       
1 44850U 19088A   21319.15454120  .00000093  00000-0  00000+0 0  9996
2 44850  64.9098 129.8784 0009832 253.5387  41.4714  2.13102313 15006
COSMOS 2545 (760)       
1 45358U 20018A   21319.35483156 -.00000078  00000-0  00000+0 0  9992
2 45358  64.9186  10.7166 0010776 242.7479  55.7194  2.13102650 12967
